start=new Date('2023-06-09T00:00:00.000Z').valueOf();
sats=[{"OBJECT_NAME":"STARLINK-2687","INCLINATION":"53.0522","LAUNCH_DATE":"2021-05-09","TLE_LINE1":"1 48466U 21040AQ  23159.60967379  .00013959  00000-0  95391-3 0  9999","MEAN_MOTION_DOT":"0.00013959","ECCENTRICITY":"0.00027650","DECAY_DATE":null,"OBJECT_TYPE":"PAYLOAD","ARG_OF_PERICENTER":"76.6239","NORAD_CAT_ID":"48466","RA_OF_ASC_NODE":"23.6063","MEAN_ELEMENT_THEORY":"SGP4","REF_FRAME":"TEME","FILE":"3928128","MEAN_MOTION_DDOT":"0.0000000000000","MEAN_MOTION":"15.06408186","MEAN_ANOMALY":"283.5058","RCS_SIZE":"LARGE","TIME_SYSTEM":"UTC","TLE_LINE2":"2 48466  53.0522  23.6063 0002765  76.6239 283.5058 15.06408186116288","REV_AT_EPOCH":"11628","PERIOD":"95.592","OBJECT_ID":"2021-040AQ","ELEMENT_SET_NO":"999","COUNTRY_CODE":"US","PERIAPSIS":"545.274","APOAPSIS":"549.103","CLASSIFICATION_TYPE":"U","CENTER_NAME":"EARTH","EPHEMERIS_TYPE":"0","SEMIMAJOR_AXIS":"6925.323","GP_ID":"233479318","EPOCH":"2023-06-08T14:37:55.815456","SITE":"AFETR","BSTAR":"0.00095391000000"},{"MEAN_MOTION_DOT":"0.00024631","TLE_LINE1":"1 48467U 21040AR  23158.90565153  .00024631  00000-0  16654-2 0  9999","LAUNCH_DATE":"2021-05-09","INCLINATION":"53.0546","OBJECT_NAME":"STARLINK-2659","OBJECT_TYPE":"PAYLOAD","DECAY_DATE":null,"ECCENTRICITY":"0.00014910","ARG_OF_PERICENTER":"81.2557","MEAN_ELEMENT_THEORY":"SGP4","RA_OF_ASC_NODE":"26.7585","NORAD_CAT_ID":"48467","RCS_SIZE":"LARGE","MEAN_MOTION":"15.06428087","MEAN_ANOMALY":"278.8601","REF_FRAME":"TEME","MEAN_MOTION_DDOT":"0.0000000000000","FILE":"3927436","APOAPSIS":"548.160","PERIAPSIS":"546.095","CLASSIFICATION_TYPE":"U","ELEMENT_SET_NO":"999","OBJECT_ID":"2021-040AR","COUNTRY_CODE":"US","PERIOD":"95.590","TLE_LINE2":"2 48467  53.0546  26.7585 0001491  81.2557 278.8601 15.06428087114908","REV_AT_EPOCH":"11490","TIME_SYSTEM":"UTC","SEMIMAJOR_AXIS":"6925.262","EPHEMERIS_TYPE":"0","CENTER_NAME":"EARTH","BSTAR":"0.00166540000000","EPOCH":"2023-06-07T21:44:08.292192","SITE":"AFETR","GP_ID":"233431498"},{"OBJECT_NAME":"STARLINK-2685","INCLINATION":"53.0540","TLE_LINE1":"1 48468U 21040AS  23158.95357407  .00024261  00000-0  16411-2 0  9996","LAUNCH_DATE":"2021-05-09","MEAN_MOTION_DOT":"0.00024261","DECAY_DATE":null,"ECCENTRICITY":"0.00011130","OBJECT_TYPE":"PAYLOAD","ARG_OF_PERICENTER":"78.8827","NORAD_CAT_ID":"48468","RA_OF_ASC_NODE":"26.5402","MEAN_ELEMENT_THEORY":"SGP4","FILE":"3928007","MEAN_MOTION_DDOT":"0.0000000000000","REF_FRAME":"TEME","MEAN_ANOMALY":"281.2287","MEAN_MOTION":"15.06420666","RCS_SIZE":"LARGE","TIME_SYSTEM":"UTC","PERIOD":"95.591","TLE_LINE2":"2 48468  53.0540  26.5402 0001113  78.8827 281.2287 15.06420666114916","REV_AT_EPOCH":"11491","COUNTRY_CODE":"US","OBJECT_ID":"2021-040AS","ELEMENT_SET_NO":"999","CLASSIFICATION_TYPE":"U","APOAPSIS":"547.921","PERIAPSIS":"546.379","CENTER_NAME":"EARTH","EPHEMERIS_TYPE":"0","SEMIMAJOR_AXIS":"6925.285","GP_ID":"233471644","SITE":"AFETR","EPOCH":"2023-06-07T22:53:08.799648","BSTAR":"0.00164110000000"},{"OBJECT_TYPE":"PAYLOAD","ECCENTRICITY":"0.00015070","DECAY_DATE":null,"MEAN_MOTION_DOT":"0.00024365","LAUNCH_DATE":"2021-05-09","TLE_LINE1":"1 48469U 21040AT  23158.90196989  .00024365  00000-0  16480-2 0  9999","INCLINATION":"53.0541","OBJECT_NAME":"STARLINK-2661","MEAN_ELEMENT_THEORY":"SGP4","RA_OF_ASC_NODE":"26.7762","NORAD_CAT_ID":"48469","ARG_OF_PERICENTER":"86.3752","PERIAPSIS":"546.103","APOAPSIS":"548.190","CLASSIFICATION_TYPE":"U","OBJECT_ID":"2021-040AT","ELEMENT_SET_NO":"999","COUNTRY_CODE":"US","PERIOD":"95.591","TLE_LINE2":"2 48469  53.0541  26.7762 0001507  86.3752 273.7409 15.06421889114906","REV_AT_EPOCH":"11490","TIME_SYSTEM":"UTC","RCS_SIZE":"LARGE","MEAN_MOTION":"15.06421889","MEAN_ANOMALY":"273.7409","REF_FRAME":"TEME","MEAN_MOTION_DDOT":"0.0000000000000","FILE":"3927436","BSTAR":"0.00164800000000","EPOCH":"2023-06-07T21:38:50.198496","SITE":"AFETR","GP_ID":"233430497","SEMIMAJOR_AXIS":"6925.281","EPHEMERIS_TYPE":"0","CENTER_NAME":"EARTH"},{"GP_ID":"233471145","BSTAR":"0.00155000000000","SITE":"AFETR","EPOCH":"2023-06-07T23:07:42.274272","EPHEMERIS_TYPE":"0","CENTER_NAME":"EARTH","SEMIMAJOR_AXIS":"6925.273","REV_AT_EPOCH":"11490","TLE_LINE2":"2 48470  53.0542  26.4900 0001480  76.4594 283.6559 15.06424683114905","PERIOD":"95.591","TIME_SYSTEM":"UTC","CLASSIFICATION_TYPE":"U","PERIAPSIS":"546.113","APOAPSIS":"548.163","COUNTRY_CODE":"US","ELEMENT_SET_NO":"999","OBJECT_ID":"2021-040AU","FILE":"3928007","MEAN_MOTION_DDOT":"0.0000000000000","REF_FRAME":"TEME","RCS_SIZE":"LARGE","MEAN_ANOMALY":"283.6559","MEAN_MOTION":"15.06424683","RA_OF_ASC_NODE":"26.4900","NORAD_CAT_ID":"48470","MEAN_ELEMENT_THEORY":"SGP4","ARG_OF_PERICENTER":"76.4594","ECCENTRICITY":"0.00014800","DECAY_DATE":null,"OBJECT_TYPE":"PAYLOAD","INCLINATION":"53.0542","OBJECT_NAME":"STARLINK-2675","MEAN_MOTION_DOT":"0.00022897","TLE_LINE1":"1 48470U 21040AU  23158.96368373  .00022897  00000-0  15500-2 0  9995","LAUNCH_DATE":"2021-05-09"},{"COUNTRY_CODE":"US","ELEMENT_SET_NO":"999","OBJECT_ID":"2021-040AV","CLASSIFICATION_TYPE":"U","APOAPSIS":"548.116","PERIAPSIS":"546.264","TIME_SYSTEM":"UTC","PERIOD":"95.592","TLE_LINE2":"2 48471  53.0530  26.2336 0001337  77.1377 282.9761 15.06407736114910","REV_AT_EPOCH":"11491","MEAN_ANOMALY":"282.9761","MEAN_MOTION":"15.06407736","RCS_SIZE":"LARGE","FILE":"3928007","MEAN_MOTION_DDOT":"0.0000000000000","REF_FRAME":"TEME","SITE":"AFETR","EPOCH":"2023-06-08T00:33:59.796000","BSTAR":"0.00120180000000","GP_ID":"233471897","SEMIMAJOR_AXIS":"6925.325","CENTER_NAME":"EARTH","EPHEMERIS_TYPE":"0","OBJECT_TYPE":"PAYLOAD","DECAY_DATE":null,"ECCENTRICITY":"0.00013370","LAUNCH_DATE":"2021-05-09","TLE_LINE1":"1 48471U 21040AV  23159.02360875  .00017668  00000-0  12018-2 0  9994","MEAN_MOTION_DOT":"0.00017668","OBJECT_NAME":"STARLINK-2684","INCLINATION":"53.0530","MEAN_ELEMENT_THEORY":"SGP4","NORAD_CAT_ID":"48471","RA_OF_ASC_NODE":"26.2336","ARG_OF_PERICENTER":"77.1377"},{"MEAN_ELEMENT_THEORY":"SGP4","NORAD_CAT_ID":"48472","RA_OF_ASC_NODE":"26.3130","ARG_OF_PERICENTER":"115.2120","OBJECT_TYPE":"PAYLOAD","ECCENTRICITY":"0.00008450","DECAY_DATE":null,"TLE_LINE1":"1 48472U 21040AW  23159.00516895  .00019657  00000-0  13340-2 0  9997","LAUNCH_DATE":"2021-05-09","MEAN_MOTION_DOT":"0.00019657","OBJECT_NAME":"STARLINK-2722","INCLINATION":"53.0546","EPOCH":"2023-06-08T00:07:26.597280","SITE":"AFETR","BSTAR":"0.00133400000000","GP_ID":"233472145","SEMIMAJOR_AXIS":"6925.273","CENTER_NAME":"EARTH","EPHEMERIS_TYPE":"0","ELEMENT_SET_NO":"999","OBJECT_ID":"2021-040AW","COUNTRY_CODE":"US","APOAPSIS":"547.723","PERIAPSIS":"546.553","CLASSIFICATION_TYPE":"U","TIME_SYSTEM":"UTC","PERIOD":"95.591","TLE_LINE2":"2 48472  53.0546  26.3130 0000845 115.2120 244.8957 15.06424670114903","REV_AT_EPOCH":"11490","MEAN_MOTION":"15.06424670","MEAN_ANOMALY":"244.8957","RCS_SIZE":"LARGE","REF_FRAME":"TEME","MEAN_MOTION_DDOT":"0.0000000000000","FILE":"3928007"},{"MEAN_MOTION_DOT":"0.00019089","LAUNCH_DATE":"2021-05-09","TLE_LINE1":"1 48473U 21040AX  23159.04202702  .00019089  00000-0  12959-2 0  9995","INCLINATION":"53.0542","OBJECT_NAME":"STARLINK-2658","OBJECT_TYPE":"PAYLOAD","DECAY_DATE":null,"ECCENTRICITY":"0.00014440","ARG_OF_PERICENTER":"89.4159","MEAN_ELEMENT_THEORY":"SGP4","RA_OF_ASC_NODE":"26.1451","NORAD_CAT_ID":"48473","RCS_SIZE":"LARGE","MEAN_MOTION":"15.06430334","MEAN_ANOMALY":"270.6996","REF_FRAME":"TEME","MEAN_MOTION_DDOT":"0.0000000000000","FILE":"3928007","APOAPSIS":"548.121","PERIAPSIS":"546.121","CLASSIFICATION_TYPE":"U","OBJECT_ID":"2021-040AX","ELEMENT_SET_NO":"999","COUNTRY_CODE":"US","PERIOD":"95.590","TLE_LINE2":"2 48473  53.0542  26.1451 0001444  89.4159 270.6996 15.06430334114919","REV_AT_EPOCH":"11491","TIME_SYSTEM":"UTC","SEMIMAJOR_AXIS":"6925.256","EPHEMERIS_TYPE":"0","CENTER_NAME":"EARTH","BSTAR":"0.00129590000000","EPOCH":"2023-06-08T01:00:31.134528","SITE":"AFETR","GP_ID":"233470395"},{"SITE":"AFETR","EPOCH":"2023-06-08T00:12:44.944992","BSTAR":"0.00133380000000","GP_ID":"233479856","SEMIMAJOR_AXIS":"6925.269","CENTER_NAME":"EARTH","EPHEMERIS_TYPE":"0","COUNTRY_CODE":"US","OBJECT_ID":"2021-040AY","ELEMENT_SET_NO":"999","CLASSIFICATION_TYPE":"U","APOAPSIS":"547.828","PERIAPSIS":"546.440","TIME_SYSTEM":"UTC","PERIOD":"95.590","TLE_LINE2":"2 48474  53.0541  26.2923 0001002 112.5904 247.5191 15.06425990116183","REV_AT_EPOCH":"11618","MEAN_ANOMALY":"247.5191","MEAN_MOTION":"15.06425990","RCS_SIZE":"LARGE","MEAN_MOTION_DDOT":"0.0000000000000","FILE":"3928130","REF_FRAME":"TEME","MEAN_ELEMENT_THEORY":"SGP4","NORAD_CAT_ID":"48474","RA_OF_ASC_NODE":"26.2923","ARG_OF_PERICENTER":"112.5904","OBJECT_TYPE":"PAYLOAD","DECAY_DATE":null,"ECCENTRICITY":"0.00010020","LAUNCH_DATE":"2021-05-09","TLE_LINE1":"1 48474U 21040AY  23159.00885353  .00019655  00000-0  13338-2 0  9992","MEAN_MOTION_DOT":"0.00019655","OBJECT_NAME":"STARLINK-2697","INCLINATION":"53.0541"},{"GP_ID":"233502054","BSTAR":"0.00024057000000","SITE":"AFETR","EPOCH":"2023-06-08T15:25:41.539296","EPHEMERIS_TYPE":"0","CENTER_NAME":"EARTH","SEMIMAJOR_AXIS":"6925.342","PERIOD":"95.592","TLE_LINE2":"2 48475  53.0550  23.4493 0001127  84.4807 275.6311 15.06401989115000","REV_AT_EPOCH":"11500","TIME_SYSTEM":"UTC","CLASSIFICATION_TYPE":"U","PERIAPSIS":"546.427","APOAPSIS":"547.988","COUNTRY_CODE":"US","ELEMENT_SET_NO":"999","OBJECT_ID":"2021-040AZ","MEAN_MOTION_DDOT":"0.0000000000000","FILE":"3928201","REF_FRAME":"TEME","RCS_SIZE":"LARGE","MEAN_ANOMALY":"275.6311","MEAN_MOTION":"15.06401989","RA_OF_ASC_NODE":"23.4493","NORAD_CAT_ID":"48475","MEAN_ELEMENT_THEORY":"SGP4","ARG_OF_PERICENTER":"84.4807","DECAY_DATE":null,"ECCENTRICITY":"0.00011270","OBJECT_TYPE":"PAYLOAD","INCLINATION":"53.0550","OBJECT_NAME":"STARLINK-2619","MEAN_MOTION_DOT":"0.00003304","TLE_LINE1":"1 48475U 21040AZ  23159.64284189  .00003304  00000-0  24057-3 0  9998","LAUNCH_DATE":"2021-05-09"}];
